STARLINK-5089           
1 56148U 23046BJ  26068.43704009  .00059331  00000+0  43155-2 0  9998
2 56148  43.0025 109.1420 0001595 212.4436 147.6309 15.03010147162617
QPS-SAR-8 (AMATERU-IV)  
1 60542U 24149CC  26068.70418071  .00008268  00000+0  61811-3 0  9990
2 60542  97.6699 148.7511 0003873  93.1500 267.0168 15.03026697 85328
